APRIZESAT 2             
1 28366U 04025A   26164.17949120  .00000146  00000+0  58695-4 0  9995
2 28366  98.1010 330.3869 0104272 262.0911  96.8432 14.38034371151064
SAUDICOMSAT 1           
1 28369U 04025D   26163.96022058  .00000365  00000+0  94635-4 0  9993
2 28369  98.5771 173.9776 0032901  38.3198 322.0327 14.55470622163515
SAUDICOMSAT 2           
1 28370U 04025E   26164.26074679  .00000245  00000+0  74778-4 0  9998
2 28370  98.6641 176.3958 0054135 271.6463  87.8530 14.49979207159538
APRIZESAT 1             
1 28372U 04025G   26164.29725130  .00000206  00000+0  62712-4 0  9990
2 28372  98.6304 174.9170 0044869 165.5373 194.7117 14.51775164161340
NANOSAT-1               
1 28493U 04049B   26164.31582405  .00000932  00000+0  13007-3 0  9997
2 28493  98.2270 300.8823 0003004 319.5301  40.5686 14.80152483154879
SAUDICOMSAT 7           
1 31119U 07012C   26164.15434616  .00000416  00000+0  83770-4 0  9993
2 31119  98.3777 138.2035 0055017 207.9493 151.8752 14.66106821 21841
SAUDICOMSAT 6           
1 31121U 07012E   26163.84865055  .00000587  00000+0  12182-3 0  9993
2 31121  98.4097 131.2844 0071368 341.3783  18.4808 14.62553484 19555
SAUDICOMSAT 5           
1 31124U 07012H   26163.86080409  .00000559  00000+0  10461-3 0  9997
2 31124  98.3487 138.6521 0048243 138.0355 222.4562 14.68151529 22968
SAUDICOMSAT 3           
1 31125U 07012J   26164.16906867  .00000802  00000+0  13877-3 0  9992
2 31125  98.3142 139.5152 0040392  65.5536 294.9875 14.70699528 24231
SAUDICOMSAT 4           
1 31127U 07012L   26164.19193065  .00000447  00000+0  92099-4 0  9994
2 31127  98.3981 136.6808 0062046 270.9831  88.4262 14.64508633 20703
APRIZESAT 4             
1 35684U 09041D   26164.14371274  .00000597  00000+0  77891-4 0  9994
2 35684  98.1412 239.3836 0042669 336.4023  23.5232 14.83874405910769
APRIZESAT 3             
1 35686U 09041F   26164.22020731  .00001435  00000+0  12809-3 0  9993
2 35686  98.2053 317.2542 0062743  80.5078 280.3226 14.96229528915782
S-NET D                 
1 43186U 18014G   26164.23939796  .00004913  00000+0  25442-3 0  9999
2 43186  97.5371  69.0549 0009323  42.3209 317.8742 15.16637658458160
S-NET B                 
1 43187U 18014H   26164.25077382  .00004746  00000+0  24608-3 0  9993
2 43187  97.5380  69.0529 0009847  37.7627 322.4295 15.16608334458166
S-NET A                 
1 43188U 18014J   26164.23829673  .00004895  00000+0  25344-3 0  9993
2 43188  97.5389  69.2482 0009715  38.5958 321.5967 15.16645203458168
S-NET C                 
1 43189U 18014K   26164.25463002  .00004861  00000+0  25194-3 0  9992
2 43189  97.5405  69.3388 0010893  30.6747 329.5121 15.16600549456715
SALSAT                  
1 46495U 20068K   26164.15546278  .00007973  00000+0  27935-3 0  9995
2 46495  97.8846 166.9746 0008357 325.1548  34.9143 15.29744309314749
OOV-CUBE (TUBSAT-30)    
1 60240U 24128F   26163.73041624  .00002175  00000+0  17414-3 0  9998
2 60240  61.9949 241.1135 0045186 132.7412 227.7496 15.02757002105443
LPNTSAT-001 (IOD-1)     
1 68408U 26065A   26164.18895310  .00002785  00000+0  13777-3 0  9998
2 68408  97.4028  44.7834 0017108  24.1690 336.0343 15.18518619 11657
